[{"OBJECT_NAME":"ONEWEB-0593","OBJECT_ID":"2022-166T","EPOCH":"2026-03-09T15:26:05.779680","MEAN_MOTION":13.21826902,"ECCENTRICITY":0.00014976,"INCLINATION":87.9164,"RA_OF_ASC_NODE":263.8266,"ARG_OF_PERICENTER":94.5885,"MEAN_ANOMALY":265.542,"EPHEMERIS_TYPE":0,"CLASSIFICATION_TYPE":"U","NORAD_CAT_ID":54659,"ELEMENT_SET_NO":999,"REV_AT_EPOCH":15839,"BSTAR":0.00019980661,"MEAN_MOTION_DOT":9.6e-7,"MEAN_MOTION_DDOT":0},{"OBJECT_NAME":"COSMOS 409","OBJECT_ID":"1971-038A","EPOCH":"2026-03-09T17:20:52.429056","MEAN_MOTION":13.17842311,"ECCENTRICITY":0.00220215,"INCLINATION":74.003,"RA_OF_ASC_NODE":163.2842,"ARG_OF_PERICENTER":70.8976,"MEAN_ANOMALY":43.1242,"EPHEMERIS_TYPE":0,"CLASSIFICATION_TYPE":"U","NORAD_CAT_ID":5180,"ELEMENT_SET_NO":999,"REV_AT_EPOCH":63914,"BSTAR":0.00038470119,"MEAN_MOTION_DOT":1.31e-6,"MEAN_MOTION_DDOT":0}]
